QIANFAN-86              
1 63172U 25046P   26064.80357468  .00000214  00000+0  31313-3 0  9995
2 63172  88.9762 311.2065 0009277 251.6009 108.4133 13.51001716 58768
QIANFAN-87              
1 63173U 25046Q   26064.77485271  .00000215  00000+0  31404-3 0  9998
2 63173  88.9758 311.3178 0009964 245.9335 114.0774 13.51010005 58698
QIANFAN-88              
1 63174U 25046R   26064.79117759  .00000215  00000+0  31472-3 0  9999
2 63174  88.9760 311.2729 0010341 255.6620 104.3384 13.50998374 58725
QIANFAN-89              
1 63175U 25046S   26064.75430260  .00000206  00000+0  29988-3 0  9990
2 63175  88.9761 311.4658 0014833 244.9707 114.9905 13.51008894 58611
QIANFAN-90              
1 63176U 25046T   26064.78313799  .00000230  00000+0  33758-3 0  9998
2 63176  88.9761 311.4352 0011801 242.7916 117.2033 13.51008764 58639
QIANFAN-91              
1 66033U 25233A   26064.81567741  .00000034  00000+0  34240-4 0  9993
2 66033  88.9930  53.6410 0001946  92.3460 267.7914 13.51004528 19229
QIANFAN-92              
1 66034U 25233B   26064.74978083  .00000027  00000+0  23428-4 0  9999
2 66034  88.9914  53.6364 0001947  85.8838 274.2535 13.51005931 19217
QIANFAN-93              
1 66035U 25233C   26064.75801396  .00000043  00000+0  47640-4 0  9993
2 66035  88.9941  53.6594 0001921  90.8136 269.3236 13.51004941 19215
QIANFAN-94              
1 66036U 25233D   26064.74551286  .00000037  00000+0  38275-4 0  9990
2 66036  88.9937  53.5675 0002051  87.9488 272.1898 13.50991933 19268
QIANFAN-95              
1 66037U 25233E   26064.75376575  .00000028  00000+0  25033-4 0  9996
2 66037  88.9935  53.1129 0002059  93.4766 266.6620 13.51015282 19510
QIANFAN-96              
1 66038U 25233F   26064.85269528  .00000031  00000+0  29913-4 0  9992
2 66038  88.9933  53.6488 0001952  94.3744 265.7630 13.51004702 19223
QIANFAN-97              
1 66039U 25233G   26064.76215991  .00000031  00000+0  29084-4 0  9997
2 66039  88.9936  53.6387 0001944  92.1537 267.9837 13.51004099 19224
QIANFAN-98              
1 66040U 25233H   26064.77033666  .00000046  00000+0  52689-4 0  9990
2 66040  88.9925  53.3800 0002450  85.1727 274.9704 13.51004594 19363
QIANFAN-99              
1 66041U 25233J   26064.77449858  .00000045  00000+0  51139-4 0  9993
2 66041  88.9936  53.6408 0002348  88.7714 271.3706 13.51004875 19224
QIANFAN-100             
1 66042U 25233K   26064.76624090  .00000047  00000+0  54183-4 0  9990
2 66042  88.9947  53.5570 0001925  91.3612 268.7760 13.51005676 19278
QIANFAN-101             
1 66043U 25233L   26064.77811266  .00000739  00000+0  29914-3 0  9996
2 66043  88.9937  52.4356 0016903 118.5048 241.7850 14.26734786 19887
QIANFAN-102             
1 66044U 25233M   26064.86074896  .00000034  00000+0  34122-4 0  9993
2 66044  88.9934  53.5441 0002095  88.5032 271.6359 13.50992495 19287
