[{"OBJECT_NAME":"QIANFAN-86","OBJECT_ID":"2025-046P","EPOCH":"2026-03-05T19:17:08.852352","MEAN_MOTION":13.51001716,"ECCENTRICITY":0.0009277,"INCLINATION":88.9762,"RA_OF_ASC_NODE":311.2065,"ARG_OF_PERICENTER":251.6009,"MEAN_ANOMALY":108.4133,"EPHEMERIS_TYPE":0,"CLASSIFICATION_TYPE":"U","NORAD_CAT_ID":63172,"ELEMENT_SET_NO":999,"REV_AT_EPOCH":5876,"BSTAR":0.00031313,"MEAN_MOTION_DOT":2.14e-6,"MEAN_MOTION_DDOT":0},{"OBJECT_NAME":"QIANFAN-87","OBJECT_ID":"2025-046Q","EPOCH":"2026-03-05T18:35:47.274144","MEAN_MOTION":13.51010005,"ECCENTRICITY":0.0009964,"INCLINATION":88.9758,"RA_OF_ASC_NODE":311.3178,"ARG_OF_PERICENTER":245.9335,"MEAN_ANOMALY":114.0774,"EPHEMERIS_TYPE":0,"CLASSIFICATION_TYPE":"U","NORAD_CAT_ID":63173,"ELEMENT_SET_NO":999,"REV_AT_EPOCH":5869,"BSTAR":0.00031404,"MEAN_MOTION_DOT":2.15e-6,"MEAN_MOTION_DDOT":0},{"OBJECT_NAME":"QIANFAN-88","OBJECT_ID":"2025-046R","EPOCH":"2026-03-05T18:59:17.743776","MEAN_MOTION":13.50998374,"ECCENTRICITY":0.0010341,"INCLINATION":88.976,"RA_OF_ASC_NODE":311.2729,"ARG_OF_PERICENTER":255.662,"MEAN_ANOMALY":104.3384,"EPHEMERIS_TYPE":0,"CLASSIFICATION_TYPE":"U","NORAD_CAT_ID":63174,"ELEMENT_SET_NO":999,"REV_AT_EPOCH":5872,"BSTAR":0.00031472,"MEAN_MOTION_DOT":2.15e-6,"MEAN_MOTION_DDOT":0},{"OBJECT_NAME":"QIANFAN-89","OBJECT_ID":"2025-046S","EPOCH":"2026-03-05T18:06:11.744640","MEAN_MOTION":13.51008894,"ECCENTRICITY":0.0014833,"INCLINATION":88.9761,"RA_OF_ASC_NODE":311.4658,"ARG_OF_PERICENTER":244.9707,"MEAN_ANOMALY":114.9905,"EPHEMERIS_TYPE":0,"CLASSIFICATION_TYPE":"U","NORAD_CAT_ID":63175,"ELEMENT_SET_NO":999,"REV_AT_EPOCH":5861,"BSTAR":0.00029988,"MEAN_MOTION_DOT":2.06e-6,"MEAN_MOTION_DDOT":0},{"OBJECT_NAME":"QIANFAN-90","OBJECT_ID":"2025-046T","EPOCH":"2026-03-05T18:47:43.122336","MEAN_MOTION":13.51008764,"ECCENTRICITY":0.0011801,"INCLINATION":88.9761,"RA_OF_ASC_NODE":311.4352,"ARG_OF_PERICENTER":242.7916,"MEAN_ANOMALY":117.2033,"EPHEMERIS_TYPE":0,"CLASSIFICATION_TYPE":"U","NORAD_CAT_ID":63176,"ELEMENT_SET_NO":999,"REV_AT_EPOCH":5863,"BSTAR":0.00033758,"MEAN_MOTION_DOT":2.3e-6,"MEAN_MOTION_DDOT":0},{"OBJECT_NAME":"QIANFAN-91","OBJECT_ID":"2025-233A","EPOCH":"2026-03-05T19:34:34.528224","MEAN_MOTION":13.51004528,"ECCENTRICITY":0.0001946,"INCLINATION":88.993,"RA_OF_ASC_NODE":53.641,"ARG_OF_PERICENTER":92.346,"MEAN_ANOMALY":267.7914,"EPHEMERIS_TYPE":0,"CLASSIFICATION_TYPE":"U","NORAD_CAT_ID":66033,"ELEMENT_SET_NO":999,"REV_AT_EPOCH":1922,"BSTAR":3.424e-5,"MEAN_MOTION_DOT":3.4e-7,"MEAN_MOTION_DDOT":0},{"OBJECT_NAME":"QIANFAN-92","OBJECT_ID":"2025-233B","EPOCH":"2026-03-05T17:59:41.063712","MEAN_MOTION":13.51005931,"ECCENTRICITY":0.0001947,"INCLINATION":88.9914,"RA_OF_ASC_NODE":53.6364,"ARG_OF_PERICENTER":85.8838,"MEAN_ANOMALY":274.2535,"EPHEMERIS_TYPE":0,"CLASSIFICATION_TYPE":"U","NORAD_CAT_ID":66034,"ELEMENT_SET_NO":999,"REV_AT_EPOCH":1921,"BSTAR":2.3428e-5,"MEAN_MOTION_DOT":2.7e-7,"MEAN_MOTION_DDOT":0},{"OBJECT_NAME":"QIANFAN-93","OBJECT_ID":"2025-233C","EPOCH":"2026-03-05T18:11:32.406144","MEAN_MOTION":13.51004941,"ECCENTRICITY":0.0001921,"INCLINATION":88.9941,"RA_OF_ASC_NODE":53.6594,"ARG_OF_PERICENTER":90.8136,"MEAN_ANOMALY":269.3236,"EPHEMERIS_TYPE":0,"CLASSIFICATION_TYPE":"U","NORAD_CAT_ID":66035,"ELEMENT_SET_NO":999,"REV_AT_EPOCH":1921,"BSTAR":4.764e-5,"MEAN_MOTION_DOT":4.3e-7,"MEAN_MOTION_DDOT":0},{"OBJECT_NAME":"QIANFAN-94","OBJECT_ID":"2025-233D","EPOCH":"2026-03-05T17:53:32.311104","MEAN_MOTION":13.50991933,"ECCENTRICITY":0.0002051,"INCLINATION":88.9937,"RA_OF_ASC_NODE":53.5675,"ARG_OF_PERICENTER":87.9488,"MEAN_ANOMALY":272.1898,"EPHEMERIS_TYPE":0,"CLASSIFICATION_TYPE":"U","NORAD_CAT_ID":66036,"ELEMENT_SET_NO":999,"REV_AT_EPOCH":1926,"BSTAR":3.8275e-5,"MEAN_MOTION_DOT":3.7e-7,"MEAN_MOTION_DDOT":0},{"OBJECT_NAME":"QIANFAN-95","OBJECT_ID":"2025-233E","EPOCH":"2026-03-05T18:05:25.360800","MEAN_MOTION":13.51015282,"ECCENTRICITY":0.0002059,"INCLINATION":88.9935,"RA_OF_ASC_NODE":53.1129,"ARG_OF_PERICENTER":93.4766,"MEAN_ANOMALY":266.662,"EPHEMERIS_TYPE":0,"CLASSIFICATION_TYPE":"U","NORAD_CAT_ID":66037,"ELEMENT_SET_NO":999,"REV_AT_EPOCH":1951,"BSTAR":2.5033e-5,"MEAN_MOTION_DOT":2.8e-7,"MEAN_MOTION_DDOT":0},{"OBJECT_NAME":"QIANFAN-96","OBJECT_ID":"2025-233F","EPOCH":"2026-03-05T20:27:52.872192","MEAN_MOTION":13.51004702,"ECCENTRICITY":0.0001952,"INCLINATION":88.9933,"RA_OF_ASC_NODE":53.6488,"ARG_OF_PERICENTER":94.3744,"MEAN_ANOMALY":265.763,"EPHEMERIS_TYPE":0,"CLASSIFICATION_TYPE":"U","NORAD_CAT_ID":66038,"ELEMENT_SET_NO":999,"REV_AT_EPOCH":1922,"BSTAR":2.9913e-5,"MEAN_MOTION_DOT":3.1e-7,"MEAN_MOTION_DDOT":0},{"OBJECT_NAME":"QIANFAN-97","OBJECT_ID":"2025-233G","EPOCH":"2026-03-05T18:17:30.616224","MEAN_MOTION":13.51004099,"ECCENTRICITY":0.0001944,"INCLINATION":88.9936,"RA_OF_ASC_NODE":53.6387,"ARG_OF_PERICENTER":92.1537,"MEAN_ANOMALY":267.9837,"EPHEMERIS_TYPE":0,"CLASSIFICATION_TYPE":"U","NORAD_CAT_ID":66039,"ELEMENT_SET_NO":999,"REV_AT_EPOCH":1922,"BSTAR":2.9084e-5,"MEAN_MOTION_DOT":3.1e-7,"MEAN_MOTION_DDOT":0},{"OBJECT_NAME":"QIANFAN-98","OBJECT_ID":"2025-233H","EPOCH":"2026-03-05T18:29:17.087424","MEAN_MOTION":13.51004594,"ECCENTRICITY":0.000245,"INCLINATION":88.9925,"RA_OF_ASC_NODE":53.38,"ARG_OF_PERICENTER":85.1727,"MEAN_ANOMALY":274.9704,"EPHEMERIS_TYPE":0,"CLASSIFICATION_TYPE":"U","NORAD_CAT_ID":66040,"ELEMENT_SET_NO":999,"REV_AT_EPOCH":1936,"BSTAR":5.2689e-5,"MEAN_MOTION_DOT":4.6e-7,"MEAN_MOTION_DDOT":0},{"OBJECT_NAME":"QIANFAN-99","OBJECT_ID":"2025-233J","EPOCH":"2026-03-05T18:35:16.677312","MEAN_MOTION":13.51004875,"ECCENTRICITY":0.0002348,"INCLINATION":88.9936,"RA_OF_ASC_NODE":53.6408,"ARG_OF_PERICENTER":88.7714,"MEAN_ANOMALY":271.3706,"EPHEMERIS_TYPE":0,"CLASSIFICATION_TYPE":"U","NORAD_CAT_ID":66041,"ELEMENT_SET_NO":999,"REV_AT_EPOCH":1922,"BSTAR":5.1139e-5,"MEAN_MOTION_DOT":4.5e-7,"MEAN_MOTION_DDOT":0},{"OBJECT_NAME":"QIANFAN-100","OBJECT_ID":"2025-233K","EPOCH":"2026-03-05T18:23:23.213760","MEAN_MOTION":13.51005676,"ECCENTRICITY":0.0001925,"INCLINATION":88.9947,"RA_OF_ASC_NODE":53.557,"ARG_OF_PERICENTER":91.3612,"MEAN_ANOMALY":268.776,"EPHEMERIS_TYPE":0,"CLASSIFICATION_TYPE":"U","NORAD_CAT_ID":66042,"ELEMENT_SET_NO":999,"REV_AT_EPOCH":1927,"BSTAR":5.4183e-5,"MEAN_MOTION_DOT":4.7e-7,"MEAN_MOTION_DDOT":0},{"OBJECT_NAME":"QIANFAN-101","OBJECT_ID":"2025-233L","EPOCH":"2026-03-05T18:40:28.933824","MEAN_MOTION":14.26734786,"ECCENTRICITY":0.0016903,"INCLINATION":88.9937,"RA_OF_ASC_NODE":52.4356,"ARG_OF_PERICENTER":118.5048,"MEAN_ANOMALY":241.785,"EPHEMERIS_TYPE":0,"CLASSIFICATION_TYPE":"U","NORAD_CAT_ID":66043,"ELEMENT_SET_NO":999,"REV_AT_EPOCH":1988,"BSTAR":0.00029914,"MEAN_MOTION_DOT":7.39e-6,"MEAN_MOTION_DDOT":0},{"OBJECT_NAME":"QIANFAN-102","OBJECT_ID":"2025-233M","EPOCH":"2026-03-05T20:39:28.710144","MEAN_MOTION":13.50992495,"ECCENTRICITY":0.0002095,"INCLINATION":88.9934,"RA_OF_ASC_NODE":53.5441,"ARG_OF_PERICENTER":88.5032,"MEAN_ANOMALY":271.6359,"EPHEMERIS_TYPE":0,"CLASSIFICATION_TYPE":"U","NORAD_CAT_ID":66044,"ELEMENT_SET_NO":999,"REV_AT_EPOCH":1928,"BSTAR":3.4122e-5,"MEAN_MOTION_DOT":3.4e-7,"MEAN_MOTION_DDOT":0}]
